*******************************************************************************
 Revised: June 21, 2016                 Mars                            499 / 4
 
 PHYSICAL DATA (updated 2019-Oct-29):
  Vol. mean radius (km) = 3389.92+-0.04   Density (g/cm^3)      =  3.933(5+-4)
  Mass x10^23 (kg)      =    6.4171       Flattening, f         =  1/169.779
  Volume (x10^10 km^3)  =   16.318        Equatorial radius (km)=  3396.19
  Sidereal rot. period  =   24.622962 hr  Sid. rot. rate, rad/s =  0.0000708822 
  Mean solar day (sol)  =   88775.24415 s Polar gravity m/s^2   =  3.758
  Core radius (km)      = ~1700           Equ. gravity  m/s^2   =  3.71
  Geometric Albedo      =    0.150                                              

  GM (km^3/s^2)         = 42828.375214    Mass ratio (Sun/Mars) = 3098703.59
  GM 1-sigma (km^3/s^2) = +- 0.00028      Mass of atmosphere, kg= ~ 2.5 x 10^16
  Mean temperature (K)  =  210            Atmos. pressure (bar) =    0.0056 
  Obliquity to orbit    =   25.19 deg     Max. angular diam.    =  17.9"
  Mean sidereal orb per =    1.88081578 y Visual mag. V(1,0)    =  -1.52
  Mean sidereal orb per =  686.98 d       Orbital speed,  km/s  =  24.13
  Hill's sphere rad. Rp =  319.8          Escape speed, km/s    =   5.027
                                 Perihelion  Aphelion    Mean
  Solar Constant (W/m^2)         717         493         589
  Maximum Planetary IR (W/m^2)   470         315         390
  Minimum Planetary IR (W/m^2)    30          30          30
*******************************************************************************
 
 
*******************************************************************************
Ephemeris / WWW_USER Tue Apr 28 05:22:50 2020 Pasadena, USA      / Horizons    
*******************************************************************************
Target body name: Mars (499)                      {source: mar097}
Center body name: Sun (10)                        {source: mar097}
Center-site name: BODY CENTER
*******************************************************************************
Start time      : A.D. 2019-Oct-15 00:00:00.0000 TDB
Stop  time      : A.D. 2022-Jul-11 00:00:00.0000 TDB
Step-size       : 1440 minutes
*******************************************************************************
Center geodetic : 0.00000000,0.00000000,0.0000000 {E-lon(deg),Lat(deg),Alt(km)}
Center cylindric: 0.00000000,0.00000000,0.0000000 {E-lon(deg),Dxy(km),Dz(km)}
Center radii    : 696000.0 x 696000.0 x 696000.0 k{Equator, meridian, pole}    
Output units    : AU-D                                                         
Output type     : GEOMETRIC cartesian states
Output format   : 3 (position, velocity, LT, range, range-rate)
Reference frame : ICRF/J2000.0                                                 
Coordinate systm: Ecliptic and Mean Equinox of Reference Epoch                 
*******************************************************************************
            JDTDB,            Calendar Date (TDB),                      X,                      Y,                      Z,                     VX,                     VY,                     VZ,                     LT,                     RG,                     RR,
**************************************************************************************************************************************************************************************************************************************************************************
$$SOE
2459563.500000000, A.D. 2021-Dec-15 00:00:00.0000, -1.061289247889597E+00, -1.140746966658319E+00,  2.125868133251477E-03,  1.076937475258128E-02, -8.333600271733983E-03, -4.388249842483114E-04,  8.998774726764405E-03,  1.558089544583861E+00, -1.234733453428462E-03,
2459564.500000000, A.D. 2021-Dec-16 00:00:00.0000, -1.050478468722199E+00, -1.149035800637525E+00,  1.686965718055147E-03,  1.085207533247725E-02, -8.243923886503928E-03, -4.389741927904698E-04,  8.991632793487256E-03,  1.556852957170005E+00, -1.238426737688758E-03,
2459565.500000000, A.D. 2021-Dec-17 00:00:00.0000, -1.039585315381766E+00, -1.157234527280518E+00,  1.247931133514426E-03,  1.093412153700071E-02, -8.153386020183876E-03, -4.390892881259189E-04,  8.984469784306641E-03,  1.555612720576585E+00, -1.242031707055773E-03,
2459566.500000000, A.D. 2021-Dec-18 00:00:00.0000, -1.028610446894495E+00, -1.165342286450175E+00,  8.087985727224837E-04,  1.101550403942589E-02, -8.061989388915461E-03, -4.391701026162004E-04,  8.977286211233853E-03,  1.554368923455608E+00, -1.245547666247888E-03,
2459567.500000000, A.D. 2021-Dec-19 00:00:00.0000, -1.017554531641152E+00, -1.173358220768974E+00,  3.696024004926855E-04,  1.109621347879482E-02, -7.969736803195154E-03, -4.392164711334595E-04,  8.970082590307099E-03,  1.553121655156321E+00, -1.248973924890666E-03,
2459568.500000000, A.D. 2021-Dec-20 00:00:00.0000, -1.006418247393775E+00, -1.181281475716526E+00, -6.962284795279356E-05,  1.117624045167796E-02, -7.876631165512375E-03, -4.392282265723128E-04,  8.962859441582096E-03,  1.551871005723579E+00, -1.252309794738200E-03,
2459569.500000000, A.D. 2021-Dec-21 00:00:00.0000, -9.952022813516314E-01, -1.189111199729742E+00, -5.088424684370502E-04,  1.125557550830598E-02, -7.782675472121145E-03, -4.392051976100454E-04,  8.955617289126860E-03,  1.550617065896946E+00, -1.255554587003970E-03,
2459570.500000000, A.D. 2021-Dec-22 00:00:00.0000, -9.839073301774303E-01, -1.196846544305475E+00, -9.480215889276777E-04,  1.133420915735120E-02, -7.687872824785346E-03, -4.391472113442392E-04,  8.948356661024146E-03,  1.549359927111118E+00, -1.258707607648585E-03,
2459571.500000000, A.D. 2021-Dec-23 00:00:00.0000, -9.725341000332763E-01, -1.204486664104282E+00, -1.387125170410827E-03,  1.141213187542008E-02, -7.592226441850923E-03, -4.390540982647293E-04,  8.941078089373448E-03,  1.548099681496264E+00, -1.261768155636189E-03,
2459572.500000000, A.D. 2021-Dec-24 00:00:00.0000, -9.610833066148925E-01, -1.212030717054706E+00, -1.826118008138899E-03,  1.148933411142324E-02, -7.495739657032761E-03, -4.389256939074738E-04,  8.933782110284460E-03,  1.546836421876903E+00, -1.264735526949547E-03,
2459573.500000000, A.D. 2021-Dec-25 00:00:00.0000, -9.495556751837581E-01, -1.219477864459023E+00, -2.264964733473142E-03,  1.156580628584476E-02, -7.398415910016842E-03, -4.387618373336822E-04,  8.926469263865188E-03,  1.545570241769835E+00, -1.267609021859444E-03,
2459574.500000000, A.D. 2021-Dec-26 00:00:00.0000, -9.379519405983384E-01, -1.226827271101395E+00, -2.703629815840805E-03,  1.164153879128108E-02, -7.300258739270669E-03, -4.385623702178133E-04,  8.919140094213454E-03,  1.544301235382678E+00, -1.270387951618131E-03,
2459575.500000000, A.D. 2021-Dec-27 00:00:00.0000, -9.262728473454986E-01, -1.234078105357764E+00, -3.142077564243154E-03,  1.171652199263420E-02, -7.201271782744179E-03, -4.383271363429907E-04,  8.911795149412908E-03,  1.543029497613175E+00, -1.273071638919326E-03,
2459576.500000000, A.D. 2021-Dec-28 00:00:00.0000, -9.145191495716886E-01, -1.241229539306328E+00, -3.580272128376362E-03,  1.179074622130257E-02, -7.101458786082687E-03, -4.380559789193835E-04,  8.904434981526465E-03,  1.541755124048056E+00, -1.275659408799630E-03,
2459577.500000000, A.D. 2021-Dec-29 00:00:00.0000, -9.026916111125989E-01, -1.248280748838949E+00, -4.018177499968397E-03,  1.186420176878214E-02, -7.000823613651586E-03, -4.377487379030806E-04,  8.897060146584155E-03,  1.540478210960937E+00, -1.278150576976350E-03,
2459578.500000000, A.D. 2021-Dec-30 00:00:00.0000, -8.907910055207564E-01, -1.255230913775000E+00, -4.455757514681790E-03,  1.193687889147169E-02, -6.899370254072617E-03, -4.374052521580426E-04,  8.889671204570711E-03,  1.539198855310168E+00, -1.280544449135189E-03,
2459579.500000000, A.D. 2021-Dec-31 00:00:00.0000, -8.788181160918473E-01, -1.262079217978016E+00, -4.892975854250870E-03,  1.200876782400411E-02, -6.797102817255755E-03, -4.370253649117251E-04,  8.882268719417948E-03,  1.537917154737516E+00, -1.282840331757589E-03,
2459580.500000000, A.D. 2022-Jan-01 00:00:00.0000, -8.667737358905948E-01, -1.268824849473742E+00, -5.329796048340760E-03,  1.207985878736362E-02, -6.694025530898188E-03, -4.366089266703011E-04,  8.874853258998174E-03,  1.536633207567023E+00, -1.285037540047144E-03,
2459581.500000000, A.D. 2022-Jan-02 00:00:00.0000, -8.546586677756858E-01, -1.275467000568304E+00, -5.766181476231044E-03,  1.215014198673223E-02, -6.590142740388443E-03, -4.361557935862473E-04,  8.867425395110944E-03,  1.535347112802715E+00, -1.287135397154953E-03,
2459582.500000000, A.D. 2022-Jan-03 00:00:00.0000, -8.424737244226793E-01, -1.282004867967051E+00, -6.202095368819784E-03,  1.221960760444820E-02, -6.485458906848014E-03, -4.356658233693608E-04,  8.859985703461967E-03,  1.534058970124943E+00, -1.289133232457941E-03,
2459583.500000000, A.D. 2022-Jan-04 00:00:00.0000, -8.302197283450345E-01, -1.288437652895524E+00, -6.637500810992009E-03,  1.228824579464719E-02, -6.379978604143711E-03, -4.351388717834456E-04,  8.852534763642004E-03,  1.532768879886738E+00, -1.291030382058836E-03,
2459584.500000000, A.D. 2022-Jan-05 00:00:00.0000, -8.178975119145084E-01, -1.294764561223014E+00, -7.072360743806102E-03,  1.235604668317450E-02, -6.273706524383741E-03, -4.345747921815884E-04,  8.845073159112263E-03,  1.531476943111276E+00, -1.292826185328952E-03,
2459585.500000000, A.D. 2022-Jan-06 00:00:00.0000, -8.055079173812548E-01, -1.300984803587733E+00, -7.506637966252288E-03,  1.242300037373468E-02, -6.166647492377688E-03, -4.339734387743849E-04,  8.837601477192565E-03,  1.530183261489831E+00, -1.294519977030291E-03,
2459586.500000000, A.D. 2022-Jan-07 00:00:00.0000, -7.930517968923058E-01, -1.307097595522524E+00, -7.940295137097080E-03,  1.248909695584778E-02, -6.058806473548388E-03, -4.333346704166885E-04,  8.830120309042913E-03,  1.528887937378585E+00, -1.296111085360057E-03,
